[
    {
        "Altitude(m)": 617719.7692284649,
        "Argument of Periapsis(deg)": 0.0,
        "Eccentricity": 0.0,
        "Inclination(deg)": 60.0,
        "Latitude(deg)": -41.10263546375657,
        "Longitude(deg)": -154.90545476831605,
        "Mean Anomaly(deg)": 229.09090000000006,
        "RAAN(deg)": 95.0,
        "Satellite Name": "Test1 432",
        "Satellite Number": 432,
        "Semi-Major Axis(m)": 6980739.136638005,
        "Time(s)": 0
    },
    {
        "Altitude(m)": 617911.3055128364,
        "Argument of Periapsis(deg)": 0.00010418945913296404,
        "Eccentricity": 0.0,
        "Inclination(deg)": 60.0,
        "Latitude(deg)": -41.56582847432356,
        "Longitude(deg)": -154.40104992486434,
        "Mean Anomaly(deg)": 229.71100614546188,
        "RAAN(deg)": 94.99957995086027,
        "Satellite Name": "Test1 432",
        "Satellite Number": 432,
        "Semi-Major Axis(m)": 6980739.136638005,
        "Time(s)": 10
    },
    {
        "Altitude(m)": 618101.7165785712,
        "Argument of Periapsis(deg)": 0.0002083789182659281,
        "Eccentricity": 0.0,
        "Inclination(deg)": 60.0,
        "Latitude(deg)": -42.026342996643805,
        "Longitude(deg)": -153.88883770524055,
        "Mean Anomaly(deg)": 230.3311122909237,
        "RAAN(deg)": 94.99915990172052,
        "Satellite Name": "Test1 432",
        "Satellite Number": 432,
        "Semi-Major Axis(m)": 6980739.136638005,
        "Time(s)": 20
    },
    {
        "Altitude(m)": 618290.9293981955,
        "Argument of Periapsis(deg)": 0.00031256837739889213,
        "Eccentricity": 0.0,
        "Inclination(deg)": 60.0,
        "Latitude(deg)": -42.48409878427441,
        "Longitude(deg)": -153.36862342341797,
        "Mean Anomaly(deg)": 230.95121843638552,
        "RAAN(deg)": 94.99873985258078,
        "Satellite Name": "Test1 432",
        "Satellite Number": 432,
        "Semi-Major Axis(m)": 6980739.136638005,
        "Time(s)": 30
    },
    {
        "Altitude(m)": 618478.8713214512,
        "Argument of Periapsis(deg)": 0.0004167578365318562,
        "Eccentricity": 0.0,
        "Inclination(deg)": 60.0,
        "Latitude(deg)": -42.939013065717646,
        "Longitude(deg)": -152.84020859963087,
        "Mean Anomaly(deg)": 231.57132458184736,
        "RAAN(deg)": 94.99831980344103,
        "Satellite Name": "Test1 432",
        "Satellite Number": 432,
        "Semi-Major Axis(m)": 6980739.136638005,
        "Time(s)": 40
    },
    {
        "Altitude(m)": 618665.4701069373,
        "Argument of Periapsis(deg)": 0.0005209472956648203,
        "Eccentricity": 0.0,
        "Inclination(deg)": 60.0,
        "Latitude(deg)": -43.391000466306224,
        "Longitude(deg)": -152.30339205828707,
        "Mean Anomaly(deg)": 232.19143072730915,
        "RAAN(deg)": 94.99789975430129,
        "Satellite Name": "Test1 432",
        "Satellite Number": 432,
        "Semi-Major Axis(m)": 6980739.136638005,
        "Time(s)": 50
    },
    {
        "Altitude(m)": 618850.6539535723,
        "Argument of Periapsis(deg)": 0.0006251367547977843,
        "Eccentricity": 0.0,
        "Inclination(deg)": 60.0,
        "Latitude(deg)": -43.839972929449075,
        "Longitude(deg)": -151.75796953275764,
        "Mean Anomaly(deg)": 232.811536872771,
        "RAAN(deg)": 94.99747970516155,
        "Satellite Name": "Test1 432",
        "Satellite Number": 432,
        "Semi-Major Axis(m)": 6980739.136638005,
        "Time(s)": 60
    },
    {
        "Altitude(m)": 619034.3515318295,
        "Argument of Periapsis(deg)": 0.0007293262139307483,
        "Eccentricity": 0.0,
        "Inclination(deg)": 60.0,
        "Latitude(deg)": -44.285839637469145,
        "Longitude(deg)": -151.2037332917835,
        "Mean Anomaly(deg)": 233.43164301823282,
        "RAAN(deg)": 94.9970596560218,
        "Satellite Name": "Test1 432",
        "Satellite Number": 432,
        "Semi-Major Axis(m)": 6980739.136638005,
        "Time(s)": 70
    },
    {
        "Altitude(m)": 619216.4920147334,
        "Argument of Periapsis(deg)": 0.0008335156730637124,
        "Eccentricity": 0.0,
        "Inclination(deg)": 60.0,
        "Latitude(deg)": -44.72850693229541,
        "Longitude(deg)": -150.64047330235965,
        "Mean Anomaly(deg)": 234.05174916369467,
        "RAAN(deg)": 94.99663960688207,
        "Satellite Name": "Test1 432",
        "Satellite Number": 432,
        "Semi-Major Axis(m)": 6980739.136638005,
        "Time(s)": 80
    },
    {
        "Altitude(m)": 619397.0051086359,
        "Argument of Periapsis(deg)": 0.0009377051321966765,
        "Eccentricity": 0.0,
        "Inclination(deg)": 60.0,
        "Latitude(deg)": -45.167878236316454,
        "Longitude(deg)": -150.06797690545622,
        "Mean Anomaly(deg)": 234.67185530915646,
        "RAAN(deg)": 94.99621955774232,
        "Satellite Name": "Test1 432",
        "Satellite Number": 432,
        "Semi-Major Axis(m)": 6980739.136638005,
        "Time(s)": 90
    },
    {
        "Altitude(m)": 619575.8210837165,
        "Argument of Periapsis(deg)": 0.0010418945913296407,
        "Eccentricity": 0.0,
        "Inclination(deg)": 60.0,
        "Latitude(deg)": -45.603853973737166,
        "Longitude(deg)": -149.486028519671,
        "Mean Anomaly(deg)": 235.2919614546184,
        "RAAN(deg)": 94.99579950860257,
        "Satellite Name": "Test1 432",
        "Satellite Number": 432,
        "Semi-Major Axis(m)": 6980739.136638005,
        "Time(s)": 100
    },
    {
        "Altitude(m)": 619752.8708042157,
        "Argument of Periapsis(deg)": 0.0011460840504626045,
        "Eccentricity": 0.0,
        "Inclination(deg)": 60.0,
        "Latitude(deg)": -46.03633149281831,
        "Longitude(deg)": -148.8944108880363,
        "Mean Anomaly(deg)": 235.91206760008015,
        "RAAN(deg)": 94.99537945946284,
        "Satellite Name": "Test1 432",
        "Satellite Number": 432,
        "Semi-Major Axis(m)": 6980739.136638005,
        "Time(s)": 110
    },
    {
        "Altitude(m)": 619928.0857583951,
        "Argument of Periapsis(deg)": 0.0012502735095955685,
        "Eccentricity": 0.0,
        "Inclination(deg)": 60.0,
        "Latitude(deg)": -46.465204989437716,
        "Longitude(deg)": -148.2929048446841,
        "Mean Anomaly(deg)": 236.53217374554197,
        "RAAN(deg)": 94.99495941032309,
        "Satellite Name": "Test1 432",
        "Satellite Number": 432,
        "Semi-Major Axis(m)": 6980739.136638005,
        "Time(s)": 120
    },
    {
        "Altitude(m)": 620101.3980881883,
        "Argument of Periapsis(deg)": 0.0013544629687285324,
        "Eccentricity": 0.0,
        "Inclination(deg)": 60.0,
        "Latitude(deg)": -46.89036543245135,
        "Longitude(deg)": -147.6812891168089,
        "Mean Anomaly(deg)": 237.15227989100384,
        "RAAN(deg)": 94.99453936118334,
        "Satellite Name": "Test1 432",
        "Satellite Number": 432,
        "Semi-Major Axis(m)": 6980739.136638005,
        "Time(s)": 130
    },
    {
        "Altitude(m)": 620272.7406185718,
        "Argument of Periapsis(deg)": 0.0014586524278614966,
        "Eccentricity": 0.0,
        "Inclination(deg)": 60.0,
        "Latitude(deg)": -47.31170049138585,
        "Longitude(deg)": -147.0593416774668,
        "Mean Anomaly(deg)": 237.77238603646558,
        "RAAN(deg)": 94.99411931204361,
        "Satellite Name": "Test1 432",
        "Satellite Number": 432,
        "Semi-Major Axis(m)": 6980739.136638005,
        "Time(s)": 140
    },
    {
        "Altitude(m)": 620442.0468865681,
        "Argument of Periapsis(deg)": 0.0015628418869944607,
        "Eccentricity": 0.0,
        "Inclination(deg)": 60.0,
        "Latitude(deg)": -47.729094467061884,
        "Longitude(deg)": -146.42683962620998,
        "Mean Anomaly(deg)": 238.3924921819275,
        "RAAN(deg)": 94.99369926290386,
        "Satellite Name": "Test1 432",
        "Satellite Number": 432,
        "Semi-Major Axis(m)": 6980739.136638005,
        "Time(s)": 150
    },
    {
        "Altitude(m)": 620609.2511699854,
        "Argument of Periapsis(deg)": 0.0016670313461274247,
        "Eccentricity": 0.0,
        "Inclination(deg)": 60.0,
        "Latitude(deg)": -48.14242822579552,
        "Longitude(deg)": -145.78355911325588,
        "Mean Anomaly(deg)": 239.0125983273893,
        "RAAN(deg)": 94.99327921376413,
        "Satellite Name": "Test1 432",
        "Satellite Number": 432,
        "Semi-Major Axis(m)": 6980739.136638005,
        "Time(s)": 160
    },
    {
        "Altitude(m)": 620774.2885157353,
        "Argument of Periapsis(deg)": 0.0017712208052603888,
        "Eccentricity": 0.0,
        "Inclination(deg)": 60.0,
        "Latitude(deg)": -48.55157913789484,
        "Longitude(deg)": -145.12927682293804,
        "Mean Anomaly(deg)": 239.63270447285115,
        "RAAN(deg)": 94.99285916462438,
        "Satellite Name": "Test1 432",
        "Satellite Number": 432,
        "Semi-Major Axis(m)": 6980739.136638005,
        "Time(s)": 170
    },
    {
        "Altitude(m)": 620937.094767873,
        "Argument of Periapsis(deg)": 0.001875410264393353,
        "Eccentricity": 0.0,
        "Inclination(deg)": 60.0,
        "Latitude(deg)": -48.95642102123856,
        "Longitude(deg)": -144.46376999359543,
        "Mean Anomaly(deg)": 240.252810618313,
        "RAAN(deg)": 94.99243911548464,
        "Satellite Name": "Test1 432",
        "Satellite Number": 432,
        "Semi-Major Axis(m)": 6980739.136638005,
        "Time(s)": 180
    },
    {
        "Altitude(m)": 621097.6065952124,
        "Argument of Periapsis(deg)": 0.0019795997235263173,
        "Eccentricity": 0.0,
        "Inclination(deg)": 60.0,
        "Latitude(deg)": -49.35682409078967,
        "Longitude(deg)": -143.7868164896782,
        "Mean Anomaly(deg)": 240.8729167637748,
        "RAAN(deg)": 94.9920190663449,
        "Satellite Name": "Test1 432",
        "Satellite Number": 432,
        "Semi-Major Axis(m)": 6980739.136638005,
        "Time(s)": 190
    }
]